0 COSMOS 2251 DEB
1 36548U 93036BDJ 13281.58056502  .00007896  00000-0  19639-2 0  9993
2 36548 074.0264 100.3867 0028808 244.7132 178.1848 14.51632065224036
0 COSMOS 2251 DEB
1 36548U 93036BDJ 13282.46992553  .00014051  00000-0  34837-2 0    07
2 36548 074.0264 098.7112 0028736 243.0722 145.6499 14.51668003224151
0 COSMOS 2251 DEB
1 36548U 93036BDJ 13283.85553362  .00014836  00000-0  36758-2 0    18
2 36548 074.0263 096.1007 0028736 240.3469 186.6685 14.51688055224367
0 COSMOS 2251 DEB
1 36548U 93036BDJ 13287.50564378  .00012311  00000-0  30480-2 0    37
2 36548 074.0254 089.2218 0028836 233.1770 182.3003 14.51758767224893
0 COSMOS 2251 DEB
1 36548U 93036BDJ 13288.54150256  .00018247  00000-0  45065-2 0    48
2 36548 074.0254 087.2694 0028934 231.3290 195.7554 14.51793010225042
0 COSMOS 2251 DEB
1 36548U 93036BDJ 13290.13644941  .00016120  00000-0  39805-2 0    59
2 36548 074.0261 084.2641 0028699 228.0937 251.6377 14.51830325225279
0 COSMOS 2251 DEB
1 36548U 93036BDJ 13291.50390794  .00014989  00000-0  36996-2 0    65
2 36548 074.0266 081.6873 0028667 225.5342 198.5333 14.51867113225477
0 COSMOS 2251 DEB
1 36548U 93036BDJ 13292.83087898  .00014991  00000-0  36974-2 0    70
2 36548 074.0270 079.1863 0028647 223.0541 293.9936 14.51901719225666
0 COSMOS 2251 DEB
1 36548U 93036BDJ 13294.82781181  .00019393  00000-0  47730-2 0    81
2 36548 074.0269 075.4227 0028546 219.3581 291.3030 14.51952125225953
